{
  "type": "FeatureCollection",
  "features": [
    {
      "type": "Feature",
      "properties": {
        "name": "BCKOT-Hl"
      },
      "geometry": {
        "type": "Polygon",
        "coordinates": [
          [
            [
              75.9021396,
              12.0872288
            ],
            [
              75.9021384,
              12.0872273
            ],
            [
              75.9021414,
              12.0871223
            ],
            [
              75.9021509,
              12.0870245
            ],
            [
              75.9021766,
              12.0869162
            ],
            [
              75.9022163,
              12.0868106
            ],
            [
              75.9022719,
              12.0866947
            ],
            [
              75.9023278,
              12.0865743
            ],
            [
              75.902401,
              12.0864834
            ],
            [
              75.9025239,
              12.0864868
            ],
            [
              75.9026261,
              12.0865457
            ],
            [
              75.9026995,
              12.0865898
            ],
            [
              75.9027159,
              12.0866148
            ],
            [
              75.9026941,
              12.0866236
            ],
            [
              75.9026877,
              12.0866224
            ],
            [
              75.9026931,
              12.0866306
            ],
            [
              75.9027319,
              12.0866953
            ],
            [
              75.9027957,
              12.0868134
            ],
            [
              75.9028401,
              12.0869463
            ],
            [
              75.9028506,
              12.0870818
            ],
            [
              75.9028214,
              12.0872081
            ],
            [
              75.9027596,
              12.0873342
            ],
            [
              75.9026993,
              12.0874432
            ],
            [
              75.9026326,
              12.0875418
            ],
            [
              75.9025427,
              12.08762
            ],
            [
              75.9024366,
              12.0876344
            ],
            [
              75.9023264,
              12.0875674
            ],
            [
              75.9022152,
              12.0874087
            ],
            [
              75.9021396,
              12.0872288
            ]
          ]
        ]
      }
    },
    {
      "type": "Feature",
      "properties": null,
      "geometry": {
        "type": "MultiPoint",
        "coordinates": [
          [
            75.902518,
            12.087116
          ],
          [
            75.902389,
            12.087076
          ]
        ]
      }
    }
  ]
}
