{
  "type": "FeatureCollection",
  "features": [
    {
      "type": "Feature",
      "properties": {
        "name": "BCKK-H"
      },
      "geometry": {
        "type": "Polygon",
        "coordinates": [
          [
            [
              75.9886685013771,
              12.227656934108156
            ],
            [
              75.98872516304255,
              12.227958717984299
            ],
            [
              75.98912481218576,
              12.228136642518594
            ],
            [
              75.9900233,
              12.2283925
            ],
            [
              75.99032007157803,
              12.228313256256488
            ],
            [
              75.990742854774,
              12.228151715309732
            ],
            [
              75.99100135266781,
              12.228052759143504
            ],
            [
              75.9905544295907,
              12.227393159645473
            ],
            [
              75.99009476602077,
              12.22752586608505
            ],
            [
              75.98979637026787,
              12.227617941378076
            ],
            [
              75.98944365978241,
              12.227706739939892
            ],
            [
              75.9886685013771,
              12.227656934108156
            ]
          ]
        ]
      }
    },
    {
      "type": "Feature",
      "properties": null,
      "geometry": {
        "type": "MultiPoint",
        "coordinates": [
          [
            75.990359,
            12.228247
          ],
          [
            75.98938,
            12.227805
          ],
          [
            75.98938,
            12.227792
          ]
        ]
      }
    }
  ]
}
