{
  "type": "FeatureCollection",
  "features": [
    {
      "type": "Feature",
      "properties": {
        "name": "BCKK-L"
      },
      "geometry": {
        "type": "Polygon",
        "coordinates": [
          [
            [
              75.9972794,
              12.2175564
            ],
            [
              75.99682308733463,
              12.218745798960427
            ],
            [
              75.99719624966383,
              12.21887457756866
            ],
            [
              75.99761266261339,
              12.21896763891573
            ],
            [
              75.99790334701538,
              12.2190682368844
            ],
            [
              75.99823627620935,
              12.218132707067848
            ],
            [
              75.99832780659199,
              12.217891533170805
            ],
            [
              75.9972794,
              12.2175564
            ]
          ]
        ]
      }
    },
    {
      "type": "Feature",
      "properties": null,
      "geometry": {
        "type": "MultiPoint",
        "coordinates": [
          [
            75.997508,
            12.21865
          ],
          [
            75.997797,
            12.218538
          ],
          [
            75.997351,
            12.217805
          ]
        ]
      }
    }
  ]
}
