{
  "type": "FeatureCollection",
  "features": [
    {
      "type": "Feature",
      "properties": {
        "name": "BCKOT-Ti"
      },
      "geometry": {
        "type": "Polygon",
        "coordinates": [
          [
            [
              75.8929447,
              12.0845691
            ],
            [
              75.89301824569702,
              12.084326854690428
            ],
            [
              75.89316811412573,
              12.08401310532061
            ],
            [
              75.89312519878149,
              12.083824921091605
            ],
            [
              75.89282143861055,
              12.083779022479085
            ],
            [
              75.89243855327368,
              12.083808200883674
            ],
            [
              75.89210294187069,
              12.08405703681147
            ],
            [
              75.89178409427404,
              12.084418979566163
            ],
            [
              75.891482681036,
              12.084801903976617
            ],
            [
              75.89147631078959,
              12.08498385844879
            ],
            [
              75.8913252,
              12.0851533
            ],
            [
              75.8917586132884,
              12.08548775694492
            ],
            [
              75.89214149862528,
              12.08555693226622
            ],
            [
              75.8926910161972,
              12.085088441233559
            ],
            [
              75.89295219630003,
              12.084774692756623
            ],
            [
              75.8929447,
              12.0845691
            ]
          ]
        ]
      }
    },
    {
      "type": "Feature",
      "properties": null,
      "geometry": {
        "type": "MultiPoint",
        "coordinates": [
          [
            75.8919091,
            12.0845374
          ],
          [
            75.8920116,
            12.0848861
          ],
          [
            75.8928911,
            12.0844757
          ]
        ]
      }
    }
  ]
}
